{
"type": "FeatureCollection",
"name": "label_chip_footprints",
"crs": { "type": "name", "properties": { "name": "urn:ogc:def:crs:OGC:1.3:CRS84" } },
"features": [
{ "type": "Feature", "properties": { "chip_id": "1017769", "split": "flood_train_data", "crs": "EPSG:4326", "width": 512, "height": 512, "bands": 2, "dtype": "float32", "res_m": 0.0 }, "geometry": { "type": "Polygon", "coordinates": [ [ [ 93.045341172418162, 26.584383192119471 ], [ 93.045341172418162, 26.630376934666391 ], [ 92.999347429871236, 26.630376934666391 ], [ 92.999347429871236, 26.584383192119471 ], [ 93.045341172418162, 26.584383192119471 ] ] ] } },
{ "type": "Feature", "properties": { "chip_id": "1018317", "split": "flood_valid_data", "crs": "EPSG:4326", "width": 512, "height": 512, "bands": 2, "dtype": "float32", "res_m": 0.0 }, "geometry": { "type": "Polygon", "coordinates": [ [ [ 92.815372459683559, 26.538389449572552 ], [ 92.815372459683559, 26.584383192119471 ], [ 92.769378717136632, 26.584383192119471 ], [ 92.769378717136632, 26.538389449572552 ], [ 92.815372459683559, 26.538389449572552 ] ] ] } },
{ "type": "Feature", "properties": { "chip_id": "1018327", "split": "flood_test_data", "crs": "EPSG:4326", "width": 512, "height": 512, "bands": 2, "dtype": "float32", "res_m": 0.0 }, "geometry": { "type": "Polygon", "coordinates": [ [ [ 93.827234795715782, 26.584383192119471 ], [ 93.827234795715782, 26.630376934666391 ], [ 93.781241053168856, 26.630376934666391 ], [ 93.781241053168856, 26.584383192119471 ], [ 93.827234795715782, 26.584383192119471 ] ] ] } },
{ "type": "Feature", "properties": { "chip_id": "103447", "split": "flood_train_data", "crs": "EPSG:4326", "width": 512, "height": 512, "bands": 2, "dtype": "float32", "res_m": 0.0 }, "geometry": { "type": "Polygon", "coordinates": [ [ [ 92.907359944777397, 26.814351904854067 ], [ 92.907359944777397, 26.860345647400987 ], [ 92.861366202230471, 26.860345647400987 ], [ 92.861366202230471, 26.814351904854067 ], [ 92.907359944777397, 26.814351904854067 ] ] ] } },
{ "type": "Feature", "properties": { "chip_id": "1050276", "split": "flood_valid_data", "crs": "EPSG:4326", "width": 512, "height": 512, "bands": 2, "dtype": "float32", "res_m": 0.0 }, "geometry": { "type": "Polygon", "coordinates": [ [ [ 92.539410004402043, 26.170439509197195 ], [ 92.539410004402043, 26.216433251744114 ], [ 92.493416261855117, 26.216433251744114 ], [ 92.493416261855117, 26.170439509197195 ], [ 92.539410004402043, 26.170439509197195 ] ] ] } },
{ "type": "Feature", "properties": { "chip_id": "1068117", "split": "flood_valid_data", "crs": "EPSG:4326", "width": 512, "height": 512, "bands": 2, "dtype": "float32", "res_m": 0.0 }, "geometry": { "type": "Polygon", "coordinates": [ [ [ 93.735247310621943, 26.630376934666391 ], [ 93.735247310621943, 26.67637067721331 ], [ 93.689253568075017, 26.67637067721331 ], [ 93.689253568075017, 26.630376934666391 ], [ 93.735247310621943, 26.630376934666391 ] ] ] } },
{ "type": "Feature", "properties": { "chip_id": "1072277", "split": "flood_train_data", "crs": "EPSG:4326", "width": 512, "height": 512, "bands": 2, "dtype": "float32", "res_m": 0.0 }, "geometry": { "type": "Polygon", "coordinates": [ [ [ 93.091334914965074, 26.216433251744114 ], [ 93.091334914965074, 26.262426994291033 ], [ 93.045341172418148, 26.262426994291033 ], [ 93.045341172418148, 26.216433251744114 ], [ 93.091334914965074, 26.216433251744114 ] ] ] } },
{ "type": "Feature", "properties": { "chip_id": "118868", "split": "flood_valid_data", "crs": "EPSG:4326", "width": 512, "height": 512, "bands": 2, "dtype": "float32", "res_m": 0.0 }, "geometry": { "type": "Polygon", "coordinates": [ [ [ 93.827234795715782, 26.354414479384875 ], [ 93.827234795715782, 26.400408221931794 ], [ 93.781241053168856, 26.400408221931794 ], [ 93.781241053168856, 26.354414479384875 ], [ 93.827234795715782, 26.354414479384875 ] ] ] } },
{ "type": "Feature", "properties": { "chip_id": "135434", "split": "flood_train_data", "crs": "EPSG:4326", "width": 512, "height": 512, "bands": 2, "dtype": "float32", "res_m": 0.0 }, "geometry": { "type": "Polygon", "coordinates": [ [ [ 92.631397489495882, 26.814351904854067 ], [ 92.631397489495882, 26.860345647400987 ], [ 92.585403746948955, 26.860345647400987 ], [ 92.585403746948955, 26.814351904854067 ], [ 92.631397489495882, 26.814351904854067 ] ] ] } },
{ "type": "Feature", "properties": { "chip_id": "136196", "split": "flood_train_data", "crs": "EPSG:4326", "width": 512, "height": 512, "bands": 2, "dtype": "float32", "res_m": 0.0 }, "geometry": { "type": "Polygon", "coordinates": [ [ [ 93.137328657512001, 27.228295587776344 ], [ 93.137328657512001, 27.274289330323263 ], [ 93.091334914965074, 27.274289330323263 ], [ 93.091334914965074, 27.228295587776344 ], [ 93.137328657512001, 27.228295587776344 ] ] ] } },
{ "type": "Feature", "properties": { "chip_id": "164336", "split": "flood_valid_data", "crs": "EPSG:4326", "width": 512, "height": 512, "bands": 2, "dtype": "float32", "res_m": 0.0 }, "geometry": { "type": "Polygon", "coordinates": [ [ [ 93.137328657512001, 26.262426994291033 ], [ 93.137328657512001, 26.308420736837952 ], [ 93.091334914965074, 26.308420736837952 ], [ 93.091334914965074, 26.262426994291033 ], [ 93.137328657512001, 26.262426994291033 ] ] ] } },
{ "type": "Feature", "properties": { "chip_id": "166709", "split": "flood_train_data", "crs": "EPSG:4326", "width": 512, "height": 512, "bands": 2, "dtype": "float32", "res_m": 0.0 }, "geometry": { "type": "Polygon", "coordinates": [ [ [ 93.551272340434267, 26.906339389947906 ], [ 93.551272340434267, 26.952333132494825 ], [ 93.50527859788734, 26.952333132494825 ], [ 93.50527859788734, 26.906339389947906 ], [ 93.551272340434267, 26.906339389947906 ] ] ] } },
{ "type": "Feature", "properties": { "chip_id": "177319", "split": "flood_train_data", "crs": "EPSG:4326", "width": 512, "height": 512, "bands": 2, "dtype": "float32", "res_m": 0.0 }, "geometry": { "type": "Polygon", "coordinates": [ [ [ 93.137328657512001, 26.446401964478714 ], [ 93.137328657512001, 26.492395707025633 ], [ 93.091334914965074, 26.492395707025633 ], [ 93.091334914965074, 26.446401964478714 ], [ 93.137328657512001, 26.446401964478714 ] ] ] } },
{ "type": "Feature", "properties": { "chip_id": "179238", "split": "flood_train_data", "crs": "EPSG:4326", "width": 512, "height": 512, "bands": 2, "dtype": "float32", "res_m": 0.0 }, "geometry": { "type": "Polygon", "coordinates": [ [ [ 93.183322400058913, 26.860345647400987 ], [ 93.183322400058913, 26.906339389947906 ], [ 93.137328657511986, 26.906339389947906 ], [ 93.137328657511986, 26.860345647400987 ], [ 93.183322400058913, 26.860345647400987 ] ] ] } },
{ "type": "Feature", "properties": { "chip_id": "180633", "split": "flood_valid_data", "crs": "EPSG:4326", "width": 512, "height": 512, "bands": 2, "dtype": "float32", "res_m": 0.0 }, "geometry": { "type": "Polygon", "coordinates": [ [ [ 93.321303627699677, 26.722364419760229 ], [ 93.321303627699677, 26.768358162307148 ], [ 93.275309885152751, 26.768358162307148 ], [ 93.275309885152751, 26.722364419760229 ], [ 93.321303627699677, 26.722364419760229 ] ] ] } },
{ "type": "Feature", "properties": { "chip_id": "207862", "split": "flood_train_data", "crs": "EPSG:4326", "width": 512, "height": 512, "bands": 2, "dtype": "float32", "res_m": 0.0 }, "geometry": { "type": "Polygon", "coordinates": [ [ [ 92.815372459683559, 26.308420736837956 ], [ 92.815372459683559, 26.354414479384875 ], [ 92.769378717136632, 26.354414479384875 ], [ 92.769378717136632, 26.308420736837956 ], [ 92.815372459683559, 26.308420736837956 ] ] ] } },
{ "type": "Feature", "properties": { "chip_id": "244057", "split": "flood_valid_data", "crs": "EPSG:4326", "width": 512, "height": 512, "bands": 2, "dtype": "float32", "res_m": 0.0 }, "geometry": { "type": "Polygon", "coordinates": [ [ [ 93.505278597887354, 27.274289330323263 ], [ 93.505278597887354, 27.320283072870183 ], [ 93.459284855340428, 27.320283072870183 ], [ 93.459284855340428, 27.274289330323263 ], [ 93.505278597887354, 27.274289330323263 ] ] ] } },
{ "type": "Feature", "properties": { "chip_id": "25540", "split": "flood_train_data", "crs": "EPSG:4326", "width": 512, "height": 512, "bands": 2, "dtype": "float32", "res_m": 0.0 }, "geometry": { "type": "Polygon", "coordinates": [ [ [ 92.585403746948955, 25.986464539009518 ], [ 92.585403746948955, 26.032458281556437 ], [ 92.539410004402029, 26.032458281556437 ], [ 92.539410004402029, 25.986464539009518 ], [ 92.585403746948955, 25.986464539009518 ] ] ] } },
{ "type": "Feature", "properties": { "chip_id": "265762", "split": "flood_train_data", "crs": "EPSG:4326", "width": 512, "height": 512, "bands": 2, "dtype": "float32", "res_m": 0.0 }, "geometry": { "type": "Polygon", "coordinates": [ [ [ 93.965216023356547, 27.090314360135586 ], [ 93.965216023356547, 27.136308102682506 ], [ 93.91922228080962, 27.136308102682506 ], [ 93.91922228080962, 27.090314360135586 ], [ 93.965216023356547, 27.090314360135586 ] ] ] } },
{ "type": "Feature", "properties": { "chip_id": "273873", "split": "flood_train_data", "crs": "EPSG:4326", "width": 512, "height": 512, "bands": 2, "dtype": "float32", "res_m": 0.0 }, "geometry": { "type": "Polygon", "coordinates": [ [ [ 93.045341172418162, 27.044320617588667 ], [ 93.045341172418162, 27.090314360135586 ], [ 92.999347429871236, 27.090314360135586 ], [ 92.999347429871236, 27.044320617588667 ], [ 93.045341172418162, 27.044320617588667 ] ] ] } },
{ "type": "Feature", "properties": { "chip_id": "285297", "split": "flood_train_data", "crs": "EPSG:4326", "width": 512, "height": 512, "bands": 2, "dtype": "float32", "res_m": 0.0 }, "geometry": { "type": "Polygon", "coordinates": [ [ [ 92.769378717136632, 26.262426994291033 ], [ 92.769378717136632, 26.308420736837952 ], [ 92.723384974589706, 26.308420736837952 ], [ 92.723384974589706, 26.262426994291033 ], [ 92.769378717136632, 26.262426994291033 ] ] ] } },
{ "type": "Feature", "properties": { "chip_id": "287642", "split": "flood_train_data", "crs": "EPSG:4326", "width": 512, "height": 512, "bands": 2, "dtype": "float32", "res_m": 0.0 }, "geometry": { "type": "Polygon", "coordinates": [ [ [ 92.631397489495882, 26.400408221931794 ], [ 92.631397489495882, 26.446401964478714 ], [ 92.585403746948955, 26.446401964478714 ], [ 92.585403746948955, 26.400408221931794 ], [ 92.631397489495882, 26.400408221931794 ] ] ] } },
{ "type": "Feature", "properties": { "chip_id": "324254", "split": "flood_train_data", "crs": "EPSG:4326", "width": 512, "height": 512, "bands": 2, "dtype": "float32", "res_m": 0.0 }, "geometry": { "type": "Polygon", "coordinates": [ [ [ 93.36729737024659, 25.986464539009518 ], [ 93.36729737024659, 26.032458281556437 ], [ 93.321303627699663, 26.032458281556437 ], [ 93.321303627699663, 25.986464539009518 ], [ 93.36729737024659, 25.986464539009518 ] ] ] } },
{ "type": "Feature", "properties": { "chip_id": "373039", "split": "flood_train_data", "crs": "EPSG:4326", "width": 512, "height": 512, "bands": 2, "dtype": "float32", "res_m": 0.0 }, "geometry": { "type": "Polygon", "coordinates": [ [ [ 92.953353687324309, 27.182301845229425 ], [ 92.953353687324309, 27.228295587776344 ], [ 92.907359944777383, 27.228295587776344 ], [ 92.907359944777383, 27.182301845229425 ], [ 92.953353687324309, 27.182301845229425 ] ] ] } },
{ "type": "Feature", "properties": { "chip_id": "383430", "split": "flood_train_data", "crs": "EPSG:4326", "width": 512, "height": 512, "bands": 2, "dtype": "float32", "res_m": 0.0 }, "geometry": { "type": "Polygon", "coordinates": [ [ [ 93.551272340434267, 26.630376934666391 ], [ 93.551272340434267, 26.67637067721331 ], [ 93.50527859788734, 26.67637067721331 ], [ 93.50527859788734, 26.630376934666391 ], [ 93.551272340434267, 26.630376934666391 ] ] ] } },
{ "type": "Feature", "properties": { "chip_id": "391908", "split": "flood_train_data", "crs": "EPSG:4326", "width": 512, "height": 512, "bands": 2, "dtype": "float32", "res_m": 0.0 }, "geometry": { "type": "Polygon", "coordinates": [ [ [ 92.585403746948955, 26.170439509197195 ], [ 92.585403746948955, 26.216433251744114 ], [ 92.539410004402029, 26.216433251744114 ], [ 92.539410004402029, 26.170439509197195 ], [ 92.585403746948955, 26.170439509197195 ] ] ] } },
{ "type": "Feature", "properties": { "chip_id": "399883", "split": "flood_test_data", "crs": "EPSG:4326", "width": 512, "height": 512, "bands": 2, "dtype": "float32", "res_m": 0.0 }, "geometry": { "type": "Polygon", "coordinates": [ [ [ 93.36729737024659, 26.67637067721331 ], [ 93.36729737024659, 26.722364419760229 ], [ 93.321303627699663, 26.722364419760229 ], [ 93.321303627699663, 26.67637067721331 ], [ 93.36729737024659, 26.67637067721331 ] ] ] } },
{ "type": "Feature", "properties": { "chip_id": "44475", "split": "flood_test_data", "crs": "EPSG:4326", "width": 512, "height": 512, "bands": 2, "dtype": "float32", "res_m": 0.0 }, "geometry": { "type": "Polygon", "coordinates": [ [ [ 93.321303627699677, 26.446401964478714 ], [ 93.321303627699677, 26.492395707025633 ], [ 93.275309885152751, 26.492395707025633 ], [ 93.275309885152751, 26.446401964478714 ], [ 93.321303627699677, 26.446401964478714 ] ] ] } },
{ "type": "Feature", "properties": { "chip_id": "500266", "split": "flood_train_data", "crs": "EPSG:4326", "width": 512, "height": 512, "bands": 2, "dtype": "float32", "res_m": 0.0 }, "geometry": { "type": "Polygon", "coordinates": [ [ [ 92.677391232042794, 26.078452024103356 ], [ 92.677391232042794, 26.124445766650275 ], [ 92.631397489495868, 26.124445766650275 ], [ 92.631397489495868, 26.078452024103356 ], [ 92.677391232042794, 26.078452024103356 ] ] ] } },
{ "type": "Feature", "properties": { "chip_id": "533192", "split": "flood_valid_data", "crs": "EPSG:4326", "width": 512, "height": 512, "bands": 2, "dtype": "float32", "res_m": 0.0 }, "geometry": { "type": "Polygon", "coordinates": [ [ [ 93.91922228080962, 26.768358162307148 ], [ 93.91922228080962, 26.814351904854067 ], [ 93.873228538262694, 26.814351904854067 ], [ 93.873228538262694, 26.768358162307148 ], [ 93.91922228080962, 26.768358162307148 ] ] ] } },
{ "type": "Feature", "properties": { "chip_id": "534470", "split": "flood_train_data", "crs": "EPSG:4326", "width": 512, "height": 512, "bands": 2, "dtype": "float32", "res_m": 0.0 }, "geometry": { "type": "Polygon", "coordinates": [ [ [ 93.137328657512001, 25.894477053915679 ], [ 93.137328657512001, 25.940470796462598 ], [ 93.091334914965074, 25.940470796462598 ], [ 93.091334914965074, 25.894477053915679 ], [ 93.137328657512001, 25.894477053915679 ] ] ] } },
{ "type": "Feature", "properties": { "chip_id": "56450", "split": "flood_train_data", "crs": "EPSG:4326", "width": 512, "height": 512, "bands": 2, "dtype": "float32", "res_m": 0.0 }, "geometry": { "type": "Polygon", "coordinates": [ [ [ 92.585403746948955, 25.894477053915679 ], [ 92.585403746948955, 25.940470796462598 ], [ 92.539410004402029, 25.940470796462598 ], [ 92.539410004402029, 25.894477053915679 ], [ 92.585403746948955, 25.894477053915679 ] ] ] } },
{ "type": "Feature", "properties": { "chip_id": "566697", "split": "flood_train_data", "crs": "EPSG:4326", "width": 512, "height": 512, "bands": 2, "dtype": "float32", "res_m": 0.0 }, "geometry": { "type": "Polygon", "coordinates": [ [ [ 93.091334914965074, 26.814351904854067 ], [ 93.091334914965074, 26.860345647400987 ], [ 93.045341172418148, 26.860345647400987 ], [ 93.045341172418148, 26.814351904854067 ], [ 93.091334914965074, 26.814351904854067 ] ] ] } },
{ "type": "Feature", "properties": { "chip_id": "570384", "split": "flood_test_data", "crs": "EPSG:4326", "width": 512, "height": 512, "bands": 2, "dtype": "float32", "res_m": 0.0 }, "geometry": { "type": "Polygon", "coordinates": [ [ [ 92.815372459683559, 25.894477053915679 ], [ 92.815372459683559, 25.940470796462598 ], [ 92.769378717136632, 25.940470796462598 ], [ 92.769378717136632, 25.894477053915679 ], [ 92.815372459683559, 25.894477053915679 ] ] ] } },
{ "type": "Feature", "properties": { "chip_id": "591317", "split": "flood_test_data", "crs": "EPSG:4326", "width": 512, "height": 512, "bands": 2, "dtype": "float32", "res_m": 0.0 }, "geometry": { "type": "Polygon", "coordinates": [ [ [ 92.953353687324309, 26.584383192119471 ], [ 92.953353687324309, 26.630376934666391 ], [ 92.907359944777383, 26.630376934666391 ], [ 92.907359944777383, 26.584383192119471 ], [ 92.953353687324309, 26.584383192119471 ] ] ] } },
{ "type": "Feature", "properties": { "chip_id": "591549", "split": "flood_train_data", "crs": "EPSG:4326", "width": 512, "height": 512, "bands": 2, "dtype": "float32", "res_m": 0.0 }, "geometry": { "type": "Polygon", "coordinates": [ [ [ 93.643259825528105, 26.860345647400987 ], [ 93.643259825528105, 26.906339389947906 ], [ 93.597266082981179, 26.906339389947906 ], [ 93.597266082981179, 26.860345647400987 ], [ 93.643259825528105, 26.860345647400987 ] ] ] } },
{ "type": "Feature", "properties": { "chip_id": "592446", "split": "flood_test_data", "crs": "EPSG:4326", "width": 512, "height": 512, "bands": 2, "dtype": "float32", "res_m": 0.0 }, "geometry": { "type": "Polygon", "coordinates": [ [ [ 92.861366202230471, 25.710502083728002 ], [ 92.861366202230471, 25.756495826274922 ], [ 92.815372459683545, 25.756495826274922 ], [ 92.815372459683545, 25.710502083728002 ], [ 92.861366202230471, 25.710502083728002 ] ] ] } },
{ "type": "Feature", "properties": { "chip_id": "59460", "split": "flood_train_data", "crs": "EPSG:4326", "width": 512, "height": 512, "bands": 2, "dtype": "float32", "res_m": 0.0 }, "geometry": { "type": "Polygon", "coordinates": [ [ [ 93.091334914965074, 26.492395707025633 ], [ 93.091334914965074, 26.538389449572552 ], [ 93.045341172418148, 26.538389449572552 ], [ 93.045341172418148, 26.492395707025633 ], [ 93.091334914965074, 26.492395707025633 ] ] ] } },
{ "type": "Feature", "properties": { "chip_id": "624341", "split": "flood_train_data", "crs": "EPSG:4326", "width": 512, "height": 512, "bands": 2, "dtype": "float32", "res_m": 0.0 }, "geometry": { "type": "Polygon", "coordinates": [ [ [ 93.413291112793516, 26.032458281556437 ], [ 93.413291112793516, 26.078452024103356 ], [ 93.36729737024659, 26.078452024103356 ], [ 93.36729737024659, 26.032458281556437 ], [ 93.413291112793516, 26.032458281556437 ] ] ] } },
{ "type": "Feature", "properties": { "chip_id": "631692", "split": "flood_test_data", "crs": "EPSG:4326", "width": 512, "height": 512, "bands": 2, "dtype": "float32", "res_m": 0.0 }, "geometry": { "type": "Polygon", "coordinates": [ [ [ 93.321303627699677, 25.940470796462598 ], [ 93.321303627699677, 25.986464539009518 ], [ 93.275309885152751, 25.986464539009518 ], [ 93.275309885152751, 25.940470796462598 ], [ 93.321303627699677, 25.940470796462598 ] ] ] } },
{ "type": "Feature", "properties": { "chip_id": "652725", "split": "flood_train_data", "crs": "EPSG:4326", "width": 512, "height": 512, "bands": 2, "dtype": "float32", "res_m": 0.0 }, "geometry": { "type": "Polygon", "coordinates": [ [ [ 92.677391232042794, 26.032458281556437 ], [ 92.677391232042794, 26.078452024103356 ], [ 92.631397489495868, 26.078452024103356 ], [ 92.631397489495868, 26.032458281556437 ], [ 92.677391232042794, 26.032458281556437 ] ] ] } },
{ "type": "Feature", "properties": { "chip_id": "664410", "split": "flood_train_data", "crs": "EPSG:4326", "width": 512, "height": 512, "bands": 2, "dtype": "float32", "res_m": 0.0 }, "geometry": { "type": "Polygon", "coordinates": [ [ [ 93.137328657512001, 26.032458281556437 ], [ 93.137328657512001, 26.078452024103356 ], [ 93.091334914965074, 26.078452024103356 ], [ 93.091334914965074, 26.032458281556437 ], [ 93.137328657512001, 26.032458281556437 ] ] ] } },
{ "type": "Feature", "properties": { "chip_id": "691027", "split": "flood_valid_data", "crs": "EPSG:4326", "width": 512, "height": 512, "bands": 2, "dtype": "float32", "res_m": 0.0 }, "geometry": { "type": "Polygon", "coordinates": [ [ [ 93.78124105316887, 26.492395707025633 ], [ 93.78124105316887, 26.538389449572552 ], [ 93.735247310621943, 26.538389449572552 ], [ 93.735247310621943, 26.492395707025633 ], [ 93.78124105316887, 26.492395707025633 ] ] ] } },
{ "type": "Feature", "properties": { "chip_id": "698338", "split": "flood_train_data", "crs": "EPSG:4326", "width": 512, "height": 512, "bands": 2, "dtype": "float32", "res_m": 0.0 }, "geometry": { "type": "Polygon", "coordinates": [ [ [ 93.735247310621943, 26.952333132494829 ], [ 93.735247310621943, 26.998326875041748 ], [ 93.689253568075017, 26.998326875041748 ], [ 93.689253568075017, 26.952333132494829 ], [ 93.735247310621943, 26.952333132494829 ] ] ] } },
{ "type": "Feature", "properties": { "chip_id": "70352", "split": "flood_valid_data", "crs": "EPSG:4326", "width": 512, "height": 512, "bands": 2, "dtype": "float32", "res_m": 0.0 }, "geometry": { "type": "Polygon", "coordinates": [ [ [ 92.907359944777397, 25.84848331136876 ], [ 92.907359944777397, 25.894477053915679 ], [ 92.861366202230471, 25.894477053915679 ], [ 92.861366202230471, 25.84848331136876 ], [ 92.907359944777397, 25.84848331136876 ] ] ] } },
{ "type": "Feature", "properties": { "chip_id": "707886", "split": "flood_train_data", "crs": "EPSG:4326", "width": 512, "height": 512, "bands": 2, "dtype": "float32", "res_m": 0.0 }, "geometry": { "type": "Polygon", "coordinates": [ [ [ 93.045341172418162, 25.756495826274922 ], [ 93.045341172418162, 25.802489568821841 ], [ 92.999347429871236, 25.802489568821841 ], [ 92.999347429871236, 25.756495826274922 ], [ 93.045341172418162, 25.756495826274922 ] ] ] } },
{ "type": "Feature", "properties": { "chip_id": "73419", "split": "flood_train_data", "crs": "EPSG:4326", "width": 512, "height": 512, "bands": 2, "dtype": "float32", "res_m": 0.0 }, "geometry": { "type": "Polygon", "coordinates": [ [ [ 93.827234795715782, 26.952333132494829 ], [ 93.827234795715782, 26.998326875041748 ], [ 93.781241053168856, 26.998326875041748 ], [ 93.781241053168856, 26.952333132494829 ], [ 93.827234795715782, 26.952333132494829 ] ] ] } },
{ "type": "Feature", "properties": { "chip_id": "747970", "split": "flood_train_data", "crs": "EPSG:4326", "width": 512, "height": 512, "bands": 2, "dtype": "float32", "res_m": 0.0 }, "geometry": { "type": "Polygon", "coordinates": [ [ [ 93.091334914965074, 25.756495826274922 ], [ 93.091334914965074, 25.802489568821841 ], [ 93.045341172418148, 25.802489568821841 ], [ 93.045341172418148, 25.756495826274922 ], [ 93.091334914965074, 25.756495826274922 ] ] ] } },
{ "type": "Feature", "properties": { "chip_id": "747992", "split": "flood_test_data", "crs": "EPSG:4326", "width": 512, "height": 512, "bands": 2, "dtype": "float32", "res_m": 0.0 }, "geometry": { "type": "Polygon", "coordinates": [ [ [ 92.907359944777397, 26.032458281556437 ], [ 92.907359944777397, 26.078452024103356 ], [ 92.861366202230471, 26.078452024103356 ], [ 92.861366202230471, 26.032458281556437 ], [ 92.907359944777397, 26.032458281556437 ] ] ] } },
{ "type": "Feature", "properties": { "chip_id": "764946", "split": "flood_valid_data", "crs": "EPSG:4326", "width": 512, "height": 512, "bands": 2, "dtype": "float32", "res_m": 0.0 }, "geometry": { "type": "Polygon", "coordinates": [ [ [ 93.091334914965074, 25.710502083728002 ], [ 93.091334914965074, 25.756495826274922 ], [ 93.045341172418148, 25.756495826274922 ], [ 93.045341172418148, 25.710502083728002 ], [ 93.091334914965074, 25.710502083728002 ] ] ] } },
{ "type": "Feature", "properties": { "chip_id": "769408", "split": "flood_valid_data", "crs": "EPSG:4326", "width": 512, "height": 512, "bands": 2, "dtype": "float32", "res_m": 0.0 }, "geometry": { "type": "Polygon", "coordinates": [ [ [ 92.861366202230471, 26.768358162307148 ], [ 92.861366202230471, 26.814351904854067 ], [ 92.815372459683545, 26.814351904854067 ], [ 92.815372459683545, 26.768358162307148 ], [ 92.861366202230471, 26.768358162307148 ] ] ] } },
{ "type": "Feature", "properties": { "chip_id": "772630", "split": "flood_test_data", "crs": "EPSG:4326", "width": 512, "height": 512, "bands": 2, "dtype": "float32", "res_m": 0.0 }, "geometry": { "type": "Polygon", "coordinates": [ [ [ 93.045341172418162, 27.182301845229425 ], [ 93.045341172418162, 27.228295587776344 ], [ 92.999347429871236, 27.228295587776344 ], [ 92.999347429871236, 27.182301845229425 ], [ 93.045341172418162, 27.182301845229425 ] ] ] } },
{ "type": "Feature", "properties": { "chip_id": "773682", "split": "flood_train_data", "crs": "EPSG:4326", "width": 512, "height": 512, "bands": 2, "dtype": "float32", "res_m": 0.0 }, "geometry": { "type": "Polygon", "coordinates": [ [ [ 92.953353687324309, 26.67637067721331 ], [ 92.953353687324309, 26.722364419760229 ], [ 92.907359944777383, 26.722364419760229 ], [ 92.907359944777383, 26.67637067721331 ], [ 92.953353687324309, 26.67637067721331 ] ] ] } },
{ "type": "Feature", "properties": { "chip_id": "774689", "split": "flood_train_data", "crs": "EPSG:4326", "width": 512, "height": 512, "bands": 2, "dtype": "float32", "res_m": 0.0 }, "geometry": { "type": "Polygon", "coordinates": [ [ [ 92.907359944777397, 26.492395707025633 ], [ 92.907359944777397, 26.538389449572552 ], [ 92.861366202230471, 26.538389449572552 ], [ 92.861366202230471, 26.492395707025633 ], [ 92.907359944777397, 26.492395707025633 ] ] ] } },
{ "type": "Feature", "properties": { "chip_id": "79637", "split": "flood_test_data", "crs": "EPSG:4326", "width": 512, "height": 512, "bands": 2, "dtype": "float32", "res_m": 0.0 }, "geometry": { "type": "Polygon", "coordinates": [ [ [ 93.183322400058913, 26.262426994291033 ], [ 93.183322400058913, 26.308420736837952 ], [ 93.137328657511986, 26.308420736837952 ], [ 93.137328657511986, 26.262426994291033 ], [ 93.183322400058913, 26.262426994291033 ] ] ] } },
{ "type": "Feature", "properties": { "chip_id": "80221", "split": "flood_test_data", "crs": "EPSG:4326", "width": 512, "height": 512, "bands": 2, "dtype": "float32", "res_m": 0.0 }, "geometry": { "type": "Polygon", "coordinates": [ [ [ 92.769378717136632, 26.538389449572552 ], [ 92.769378717136632, 26.584383192119471 ], [ 92.723384974589706, 26.584383192119471 ], [ 92.723384974589706, 26.538389449572552 ], [ 92.769378717136632, 26.538389449572552 ] ] ] } },
{ "type": "Feature", "properties": { "chip_id": "804466", "split": "flood_train_data", "crs": "EPSG:4326", "width": 512, "height": 512, "bands": 2, "dtype": "float32", "res_m": 0.0 }, "geometry": { "type": "Polygon", "coordinates": [ [ [ 92.861366202230471, 26.078452024103356 ], [ 92.861366202230471, 26.124445766650275 ], [ 92.815372459683545, 26.124445766650275 ], [ 92.815372459683545, 26.078452024103356 ], [ 92.861366202230471, 26.078452024103356 ] ] ] } },
{ "type": "Feature", "properties": { "chip_id": "828067", "split": "flood_test_data", "crs": "EPSG:4326", "width": 512, "height": 512, "bands": 2, "dtype": "float32", "res_m": 0.0 }, "geometry": { "type": "Polygon", "coordinates": [ [ [ 93.78124105316887, 26.538389449572552 ], [ 93.78124105316887, 26.584383192119471 ], [ 93.735247310621943, 26.584383192119471 ], [ 93.735247310621943, 26.538389449572552 ], [ 93.78124105316887, 26.538389449572552 ] ] ] } },
{ "type": "Feature", "properties": { "chip_id": "833266", "split": "flood_valid_data", "crs": "EPSG:4326", "width": 512, "height": 512, "bands": 2, "dtype": "float32", "res_m": 0.0 }, "geometry": { "type": "Polygon", "coordinates": [ [ [ 93.827234795715782, 26.630376934666391 ], [ 93.827234795715782, 26.67637067721331 ], [ 93.781241053168856, 26.67637067721331 ], [ 93.781241053168856, 26.630376934666391 ], [ 93.827234795715782, 26.630376934666391 ] ] ] } },
{ "type": "Feature", "properties": { "chip_id": "842775", "split": "flood_train_data", "crs": "EPSG:4326", "width": 512, "height": 512, "bands": 2, "dtype": "float32", "res_m": 0.0 }, "geometry": { "type": "Polygon", "coordinates": [ [ [ 93.735247310621943, 26.906339389947906 ], [ 93.735247310621943, 26.952333132494825 ], [ 93.689253568075017, 26.952333132494825 ], [ 93.689253568075017, 26.906339389947906 ], [ 93.735247310621943, 26.906339389947906 ] ] ] } },
{ "type": "Feature", "properties": { "chip_id": "869358", "split": "flood_valid_data", "crs": "EPSG:4326", "width": 512, "height": 512, "bands": 2, "dtype": "float32", "res_m": 0.0 }, "geometry": { "type": "Polygon", "coordinates": [ [ [ 93.229316142605839, 26.032458281556437 ], [ 93.229316142605839, 26.078452024103356 ], [ 93.183322400058913, 26.078452024103356 ], [ 93.183322400058913, 26.032458281556437 ], [ 93.229316142605839, 26.032458281556437 ] ] ] } },
{ "type": "Feature", "properties": { "chip_id": "900498", "split": "flood_test_data", "crs": "EPSG:4326", "width": 512, "height": 512, "bands": 2, "dtype": "float32", "res_m": 0.0 }, "geometry": { "type": "Polygon", "coordinates": [ [ [ 93.78124105316887, 26.722364419760229 ], [ 93.78124105316887, 26.768358162307148 ], [ 93.735247310621943, 26.768358162307148 ], [ 93.735247310621943, 26.722364419760229 ], [ 93.78124105316887, 26.722364419760229 ] ] ] } },
{ "type": "Feature", "properties": { "chip_id": "91379", "split": "flood_train_data", "crs": "EPSG:4326", "width": 512, "height": 512, "bands": 2, "dtype": "float32", "res_m": 0.0 }, "geometry": { "type": "Polygon", "coordinates": [ [ [ 92.815372459683559, 26.032458281556437 ], [ 92.815372459683559, 26.078452024103356 ], [ 92.769378717136632, 26.078452024103356 ], [ 92.769378717136632, 26.032458281556437 ], [ 92.815372459683559, 26.032458281556437 ] ] ] } },
{ "type": "Feature", "properties": { "chip_id": "943439", "split": "flood_train_data", "crs": "EPSG:4326", "width": 512, "height": 512, "bands": 2, "dtype": "float32", "res_m": 0.0 }, "geometry": { "type": "Polygon", "coordinates": [ [ [ 93.36729737024659, 26.584383192119471 ], [ 93.36729737024659, 26.630376934666391 ], [ 93.321303627699663, 26.630376934666391 ], [ 93.321303627699663, 26.584383192119471 ], [ 93.36729737024659, 26.584383192119471 ] ] ] } },
{ "type": "Feature", "properties": { "chip_id": "952728", "split": "flood_test_data", "crs": "EPSG:4326", "width": 512, "height": 512, "bands": 2, "dtype": "float32", "res_m": 0.0 }, "geometry": { "type": "Polygon", "coordinates": [ [ [ 93.827234795715782, 26.860345647400987 ], [ 93.827234795715782, 26.906339389947906 ], [ 93.781241053168856, 26.906339389947906 ], [ 93.781241053168856, 26.860345647400987 ], [ 93.827234795715782, 26.860345647400987 ] ] ] } },
{ "type": "Feature", "properties": { "chip_id": "956930", "split": "flood_train_data", "crs": "EPSG:4326", "width": 512, "height": 512, "bands": 2, "dtype": "float32", "res_m": 0.0 }, "geometry": { "type": "Polygon", "coordinates": [ [ [ 92.631397489495882, 26.124445766650275 ], [ 92.631397489495882, 26.170439509197195 ], [ 92.585403746948955, 26.170439509197195 ], [ 92.585403746948955, 26.124445766650275 ], [ 92.631397489495882, 26.124445766650275 ] ] ] } },
{ "type": "Feature", "properties": { "chip_id": "979278", "split": "flood_train_data", "crs": "EPSG:4326", "width": 512, "height": 512, "bands": 2, "dtype": "float32", "res_m": 0.0 }, "geometry": { "type": "Polygon", "coordinates": [ [ [ 92.447422519308205, 26.170439509197195 ], [ 92.447422519308205, 26.216433251744114 ], [ 92.401428776761279, 26.216433251744114 ], [ 92.401428776761279, 26.170439509197195 ], [ 92.447422519308205, 26.170439509197195 ] ] ] } },
{ "type": "Feature", "properties": { "chip_id": "981708", "split": "flood_train_data", "crs": "EPSG:4326", "width": 512, "height": 512, "bands": 2, "dtype": "float32", "res_m": 0.0 }, "geometry": { "type": "Polygon", "coordinates": [ [ [ 93.827234795715782, 26.400408221931794 ], [ 93.827234795715782, 26.446401964478714 ], [ 93.781241053168856, 26.446401964478714 ], [ 93.781241053168856, 26.400408221931794 ], [ 93.827234795715782, 26.400408221931794 ] ] ] } }
]
}
